0 COSMOS 2251 DEB
1 38207U 93036BSX 13282.32589470  .00003444  00000-0  12374-2 0   787
2 38207 074.0187 166.9562 0042221 209.0352 150.8439 14.33707749162000
0 COSMOS 2251 DEB
1 38207U 93036BSX 13285.32630113  .00003582  00000-0  12859-2 0   793
2 38207 074.0180 161.4601 0042247 202.4313 157.5419 14.33731679162437
0 COSMOS 2251 DEB
1 38207U 93036BSX 13288.32664313  .00003641  00000-0  13065-2 0   803
2 38207 074.0177 155.9677 0042004 196.8857 163.0933 14.33755004162862
0 COSMOS 2251 DEB
1 38207U 93036BSX 13290.28033078  .00003734  00000-0  13384-2 0   817
2 38207 074.0188 152.3878 0042732 193.2154 166.8401 14.33772313163142
0 COSMOS 2251 DEB
1 38207U 93036BSX 13292.30376207  .00003777  00000-0  13543-2 0   821
2 38207 074.0175 148.6845 0041600 189.3542 170.6895 14.33788812163433
0 COSMOS 2251 DEB
1 38207U 93036BSX 13294.25740815  .00003856  00000-0  13792-2 0   832
2 38207 074.0214 145.0989 0045533 183.2687 176.9365 14.33806824163715
